FENGYUN 1C DEB          
1 31741U 99025CEQ 17345.20756016  .00000335  00000-0  14773-3 0  9994
2 31741  99.1181 121.2244 0205313 141.8707 219.7199 14.19340038544447
